CSS (TIANHE)            
1 48274U 21035A   24002.11826092  .00035888  00000+0  36134-3 0  9994
2 48274  41.4716  23.7762 0006538 124.3493 235.7966 15.64659199152949
